[{"OBJECT_NAME":"STARLINK-36789","OBJECT_ID":"2026-044T","EPOCH":"2026-03-26T03:41:11.121216","MEAN_MOTION":15.75205369,"ECCENTRICITY":0.00015627,"INCLINATION":97.2835,"RA_OF_ASC_NODE":46.1321,"ARG_OF_PERICENTER":145.8713,"MEAN_ANOMALY":214.2653,"EPHEMERIS_TYPE":0,"CLASSIFICATION_TYPE":"U","NORAD_CAT_ID":68118,"ELEMENT_SET_NO":999,"REV_AT_EPOCH":407,"BSTAR":0.00047434849,"MEAN_MOTION_DOT":0.00071263,"MEAN_MOTION_DDOT":0},{"OBJECT_NAME":"STARLINK-36850","OBJECT_ID":"2026-044U","EPOCH":"2026-03-26T03:40:40.921824","MEAN_MOTION":15.75213855,"ECCENTRICITY":0.00015286,"INCLINATION":97.2836,"RA_OF_ASC_NODE":46.1327,"ARG_OF_PERICENTER":108.8002,"MEAN_ANOMALY":251.343,"EPHEMERIS_TYPE":0,"CLASSIFICATION_TYPE":"U","NORAD_CAT_ID":68119,"ELEMENT_SET_NO":999,"REV_AT_EPOCH":407,"BSTAR":0.00080854314,"MEAN_MOTION_DOT":0.00122339,"MEAN_MOTION_DDOT":0},{"OBJECT_NAME":"STARLINK-36868","OBJECT_ID":"2026-044V","EPOCH":"2026-03-26T03:38:39.304320","MEAN_MOTION":15.7519109,"ECCENTRICITY":0.00018564,"INCLINATION":97.284,"RA_OF_ASC_NODE":46.1349,"ARG_OF_PERICENTER":76.0143,"MEAN_ANOMALY":284.1329,"EPHEMERIS_TYPE":0,"CLASSIFICATION_TYPE":"U","NORAD_CAT_ID":68120,"ELEMENT_SET_NO":999,"REV_AT_EPOCH":407,"BSTAR":0.00063033055,"MEAN_MOTION_DOT":0.00094947,"MEAN_MOTION_DDOT":0},{"OBJECT_NAME":"STARLINK-36855","OBJECT_ID":"2026-044W","EPOCH":"2026-03-26T03:37:38.274816","MEAN_MOTION":15.75197901,"ECCENTRICITY":0.00017567,"INCLINATION":97.284,"RA_OF_ASC_NODE":46.1363,"ARG_OF_PERICENTER":85.5605,"MEAN_ANOMALY":274.5861,"EPHEMERIS_TYPE":0,"CLASSIFICATION_TYPE":"U","NORAD_CAT_ID":68121,"ELEMENT_SET_NO":999,"REV_AT_EPOCH":407,"BSTAR":0.0007096975,"MEAN_MOTION_DOT":0.00107102,"MEAN_MOTION_DDOT":0},{"OBJECT_NAME":"STARLINK-36366","OBJECT_ID":"2026-044X","EPOCH":"2026-03-26T03:37:07.479264","MEAN_MOTION":15.75183136,"ECCENTRICITY":0.0001774,"INCLINATION":97.2839,"RA_OF_ASC_NODE":46.1365,"ARG_OF_PERICENTER":128.7914,"MEAN_ANOMALY":231.351,"EPHEMERIS_TYPE":0,"CLASSIFICATION_TYPE":"U","NORAD_CAT_ID":68122,"ELEMENT_SET_NO":999,"REV_AT_EPOCH":407,"BSTAR":0.00015632145,"MEAN_MOTION_DOT":0.00023244,"MEAN_MOTION_DDOT":0},{"OBJECT_NAME":"STARLINK-36922","OBJECT_ID":"2026-044Y","EPOCH":"2026-03-26T05:05:03.145344","MEAN_MOTION":15.75180661,"ECCENTRICITY":0.00014693,"INCLINATION":97.2841,"RA_OF_ASC_NODE":46.2067,"ARG_OF_PERICENTER":94.6832,"MEAN_ANOMALY":265.4601,"EPHEMERIS_TYPE":0,"CLASSIFICATION_TYPE":"U","NORAD_CAT_ID":68123,"ELEMENT_SET_NO":999,"REV_AT_EPOCH":408,"BSTAR":0.0004893039,"MEAN_MOTION_DOT":0.00073454,"MEAN_MOTION_DDOT":0},{"OBJECT_NAME":"STARLINK-36938","OBJECT_ID":"2026-044Z","EPOCH":"2026-03-26T06:12:03.200832","MEAN_MOTION":15.8086987,"ECCENTRICITY":0.00011848,"INCLINATION":97.2848,"RA_OF_ASC_NODE":46.2969,"ARG_OF_PERICENTER":88.848,"MEAN_ANOMALY":271.2924,"EPHEMERIS_TYPE":0,"CLASSIFICATION_TYPE":"U","NORAD_CAT_ID":68124,"ELEMENT_SET_NO":999,"REV_AT_EPOCH":409,"BSTAR":0.0011307813,"MEAN_MOTION_DOT":0.0022262,"MEAN_MOTION_DDOT":0},{"OBJECT_NAME":"STARLINK-36839","OBJECT_ID":"2026-044AA","EPOCH":"2026-03-26T03:35:05.618112","MEAN_MOTION":15.75212462,"ECCENTRICITY":0.00017618,"INCLINATION":97.2841,"RA_OF_ASC_NODE":46.1384,"ARG_OF_PERICENTER":122.1304,"MEAN_ANOMALY":238.0132,"EPHEMERIS_TYPE":0,"CLASSIFICATION_TYPE":"U","NORAD_CAT_ID":68125,"ELEMENT_SET_NO":999,"REV_AT_EPOCH":407,"BSTAR":0.00074372743,"MEAN_MOTION_DOT":0.00112384,"MEAN_MOTION_DDOT":0},{"OBJECT_NAME":"ECHOSTAR 25","OBJECT_ID":"2026-045A","EPOCH":"2026-03-24T15:14:38.626656","MEAN_MOTION":1.00483925,"ECCENTRICITY":0.00014658,"INCLINATION":0.0637,"RA_OF_ASC_NODE":279.8612,"ARG_OF_PERICENTER":191.076,"MEAN_ANOMALY":170.875,"EPHEMERIS_TYPE":0,"CLASSIFICATION_TYPE":"U","NORAD_CAT_ID":68126,"ELEMENT_SET_NO":999,"REV_AT_EPOCH":14,"BSTAR":0,"MEAN_MOTION_DOT":2.3e-7,"MEAN_MOTION_DDOT":0},{"OBJECT_NAME":"ICOR SV","OBJECT_ID":"2026-046A","EPOCH":"2026-03-26T07:36:56.010816","MEAN_MOTION":15.91914811,"ECCENTRICITY":0.01107241,"INCLINATION":123.0767,"RA_OF_ASC_NODE":281.2834,"ARG_OF_PERICENTER":215.3789,"MEAN_ANOMALY":143.9899,"EPHEMERIS_TYPE":0,"CLASSIFICATION_TYPE":"U","NORAD_CAT_ID":68127,"ELEMENT_SET_NO":999,"REV_AT_EPOCH":224,"BSTAR":0.00066898123,"MEAN_MOTION_DOT":0.0040535,"MEAN_MOTION_DDOT":7.4621471e-5},{"OBJECT_NAME":"FIREFLY ALPHA R/B","OBJECT_ID":"2026-046B","EPOCH":"2026-03-26T06:29:53.008224","MEAN_MOTION":15.57021174,"ECCENTRICITY":0.00156798,"INCLINATION":123.0943,"RA_OF_ASC_NODE":278.2054,"ARG_OF_PERICENTER":13.5468,"MEAN_ANOMALY":346.6011,"EPHEMERIS_TYPE":0,"CLASSIFICATION_TYPE":"U","NORAD_CAT_ID":68128,"ELEMENT_SET_NO":999,"REV_AT_EPOCH":222,"BSTAR":0.00049842632,"MEAN_MOTION_DOT":0.00036483,"MEAN_MOTION_DDOT":0},{"OBJECT_NAME":"GUOWANG GROUP 20 OBJECT A","OBJECT_ID":"2026-047A","EPOCH":"2026-03-24T11:18:42.584544","MEAN_MOTION":14.00120126,"ECCENTRICITY":4.55e-5,"INCLINATION":50.0057,"RA_OF_ASC_NODE":10.2567,"ARG_OF_PERICENTER":280.6416,"MEAN_ANOMALY":79.4436,"EPHEMERIS_TYPE":0,"CLASSIFICATION_TYPE":"U","NORAD_CAT_ID":68129,"ELEMENT_SET_NO":999,"REV_AT_EPOCH":164,"BSTAR":2.5604904e-5,"MEAN_MOTION_DOT":-1.12e-6,"MEAN_MOTION_DDOT":0},{"OBJECT_NAME":"GUOWANG GROUP 20 OBJECT B","OBJECT_ID":"2026-047B","EPOCH":"2026-03-24T11:16:10.999200","MEAN_MOTION":14.00458019,"ECCENTRICITY":2.294e-5,"INCLINATION":50.006,"RA_OF_ASC_NODE":10.248,"ARG_OF_PERICENTER":293.0264,"MEAN_ANOMALY":67.0614,"EPHEMERIS_TYPE":0,"CLASSIFICATION_TYPE":"U","NORAD_CAT_ID":68130,"ELEMENT_SET_NO":999,"REV_AT_EPOCH":163,"BSTAR":4.9171838e-5,"MEAN_MOTION_DOT":-7.7e-7,"MEAN_MOTION_DDOT":0},{"OBJECT_NAME":"GUOWANG GROUP 20 OBJECT C","OBJECT_ID":"2026-047C","EPOCH":"2026-03-23T21:32:20.729760","MEAN_MOTION":14.00819949,"ECCENTRICITY":0.0001695,"INCLINATION":50.0005,"RA_OF_ASC_NODE":12.534,"ARG_OF_PERICENTER":156.149,"MEAN_ANOMALY":203.9492,"EPHEMERIS_TYPE":0,"CLASSIFICATION_TYPE":"U","NORAD_CAT_ID":68131,"ELEMENT_SET_NO":999,"REV_AT_EPOCH":156,"BSTAR":2.2265347e-5,"MEAN_MOTION_DOT":-1.17e-6,"MEAN_MOTION_DDOT":0},{"OBJECT_NAME":"GUOWANG GROUP 20 OBJECT D","OBJECT_ID":"2026-047D","EPOCH":"2026-03-24T14:35:39.447744","MEAN_MOTION":14.01110084,"ECCENTRICITY":2.212e-5,"INCLINATION":50.0037,"RA_OF_ASC_NODE":9.6473,"ARG_OF_PERICENTER":23.0477,"MEAN_ANOMALY":337.0436,"EPHEMERIS_TYPE":0,"CLASSIFICATION_TYPE":"U","NORAD_CAT_ID":68132,"ELEMENT_SET_NO":999,"REV_AT_EPOCH":165,"BSTAR":3.0364787e-5,"MEAN_MOTION_DOT":-1.05e-6,"MEAN_MOTION_DDOT":0},{"OBJECT_NAME":"GUOWANG GROUP 20 OBJECT E","OBJECT_ID":"2026-047E","EPOCH":"2026-03-22T07:51:30.148128","MEAN_MOTION":14.03282701,"ECCENTRICITY":0.00018453,"INCLINATION":50.0037,"RA_OF_ASC_NODE":18.9087,"ARG_OF_PERICENTER":286.6306,"MEAN_ANOMALY":73.4395,"EPHEMERIS_TYPE":0,"CLASSIFICATION_TYPE":"U","NORAD_CAT_ID":68133,"ELEMENT_SET_NO":999,"REV_AT_EPOCH":134,"BSTAR":2.1599298e-5,"MEAN_MOTION_DOT":-1.17e-6,"MEAN_MOTION_DDOT":0},{"OBJECT_NAME":"GUOWANG GROUP 20 OBJECT F","OBJECT_ID":"2026-047F","EPOCH":"2026-03-22T12:56:16.652832","MEAN_MOTION":14.03853988,"ECCENTRICITY":0.00015499,"INCLINATION":50.0098,"RA_OF_ASC_NODE":18.0376,"ARG_OF_PERICENTER":290.5042,"MEAN_ANOMALY":69.5697,"EPHEMERIS_TYPE":0,"CLASSIFICATION_TYPE":"U","NORAD_CAT_ID":68134,"ELEMENT_SET_NO":999,"REV_AT_EPOCH":136,"BSTAR":8.0291987e-5,"MEAN_MOTION_DOT":-2.4e-7,"MEAN_MOTION_DDOT":0},{"OBJECT_NAME":"GUOWANG GROUP 20 OBJECT G","OBJECT_ID":"2026-047G","EPOCH":"2026-03-22T14:39:59.859936","MEAN_MOTION":14.03554926,"ECCENTRICITY":0.00023781,"INCLINATION":50.013,"RA_OF_ASC_NODE":17.7516,"ARG_OF_PERICENTER":303.3923,"MEAN_ANOMALY":56.6754,"EPHEMERIS_TYPE":0,"CLASSIFICATION_TYPE":"U","NORAD_CAT_ID":68135,"ELEMENT_SET_NO":999,"REV_AT_EPOCH":138,"BSTAR":0.00011610707,"MEAN_MOTION_DOT":3.2e-7,"MEAN_MOTION_DDOT":0},{"OBJECT_NAME":"GUOWANG GROUP 20 OBJECT H","OBJECT_ID":"2026-047H","EPOCH":"2026-03-23T21:23:31.171200","MEAN_MOTION":14.02326786,"ECCENTRICITY":0.0001735,"INCLINATION":50.0075,"RA_OF_ASC_NODE":12.5331,"ARG_OF_PERICENTER":306.0179,"MEAN_ANOMALY":54.0564,"EPHEMERIS_TYPE":0,"CLASSIFICATION_TYPE":"U","NORAD_CAT_ID":68136,"ELEMENT_SET_NO":999,"REV_AT_EPOCH":155,"BSTAR":3.1573e-5,"MEAN_MOTION_DOT":-1.02e-6,"MEAN_MOTION_DDOT":0},{"OBJECT_NAME":"GUOWANG GROUP 20 OBJECT J","OBJECT_ID":"2026-047J","EPOCH":"2026-03-23T21:21:21.697344","MEAN_MOTION":14.02259904,"ECCENTRICITY":1.75e-5,"INCLINATION":50.0081,"RA_OF_ASC_NODE":12.5219,"ARG_OF_PERICENTER":124.6965,"MEAN_ANOMALY":235.3956,"EPHEMERIS_TYPE":0,"CLASSIFICATION_TYPE":"U","NORAD_CAT_ID":68137,"ELEMENT_SET_NO":999,"REV_AT_EPOCH":156,"BSTAR":9.1454e-6,"MEAN_MOTION_DOT":-1.37e-6,"MEAN_MOTION_DDOT":0},{"OBJECT_NAME":"CZ-8A R/B","OBJECT_ID":"2026-047K","EPOCH":"2026-03-26T07:34:33.373056","MEAN_MOTION":14.12231502,"ECCENTRICITY":0.00447583,"INCLINATION":49.9542,"RA_OF_ASC_NODE":1.9223,"ARG_OF_PERICENTER":195.4366,"MEAN_ANOMALY":164.5179,"EPHEMERIS_TYPE":0,"CLASSIFICATION_TYPE":"U","NORAD_CAT_ID":68138,"ELEMENT_SET_NO":999,"REV_AT_EPOCH":190,"BSTAR":7.6830435e-5,"MEAN_MOTION_DOT":-1.1e-7,"MEAN_MOTION_DDOT":0},{"OBJECT_NAME":"SHIYAN-30 03","OBJECT_ID":"2026-048A","EPOCH":"2026-03-26T07:17:29.891616","MEAN_MOTION":14.9170855,"ECCENTRICITY":0.00035086,"INCLINATION":35.0009,"RA_OF_ASC_NODE":44.487,"ARG_OF_PERICENTER":338.0609,"MEAN_ANOMALY":21.9945,"EPHEMERIS_TYPE":0,"CLASSIFICATION_TYPE":"U","NORAD_CAT_ID":68139,"ELEMENT_SET_NO":999,"REV_AT_EPOCH":198,"BSTAR":0.00022651803,"MEAN_MOTION_DOT":2.296e-5,"MEAN_MOTION_DDOT":0},{"OBJECT_NAME":"SHIYAN-30 04","OBJECT_ID":"2026-048B","EPOCH":"2026-03-26T07:18:32.715648","MEAN_MOTION":14.91717827,"ECCENTRICITY":0.000202,"INCLINATION":34.9924,"RA_OF_ASC_NODE":44.4904,"ARG_OF_PERICENTER":335.138,"MEAN_ANOMALY":24.9228,"EPHEMERIS_TYPE":0,"CLASSIFICATION_TYPE":"U","NORAD_CAT_ID":68140,"ELEMENT_SET_NO":999,"REV_AT_EPOCH":198,"BSTAR":0.00021735475,"MEAN_MOTION_DOT":2.203e-5,"MEAN_MOTION_DDOT":0}]
